{
  "type": "FeatureCollection",
  "features": [
    {
      "type": "Feature",
      "properties": { "nombre": "Las Cruces", "upz": "Las Cruces" },
      "geometry": {
        "type": "Polygon",
        "coordinates": [[
          [-74.0890, 4.5870],
          [-74.0770, 4.5870],
          [-74.0770, 4.5800],
          [-74.0820, 4.5770],
          [-74.0890, 4.5800],
          [-74.0890, 4.5870]
        ]]
      }
    },
    {
      "type": "Feature",
      "properties": { "nombre": "El Consuelo", "upz": "Las Cruces" },
      "geometry": {
        "type": "Polygon",
        "coordinates": [[
          [-74.0770, 4.5870],
          [-74.0890, 4.5870],
          [-74.0890, 4.5940],
          [-74.0820, 4.5960],
          [-74.0770, 4.5930],
          [-74.0770, 4.5870]
        ]]
      }
    },
    {
      "type": "Feature",
      "properties": { "nombre": "El Rocío", "upz": "Las Cruces" },
      "geometry": {
        "type": "Polygon",
        "coordinates": [[
          [-74.0820, 4.5960],
          [-74.0890, 4.5940],
          [-74.0890, 4.6000],
          [-74.0830, 4.6010],
          [-74.0790, 4.5990],
          [-74.0820, 4.5960]
        ]]
      }
    },
    {
      "type": "Feature",
      "properties": { "nombre": "Los Laches", "upz": "Lourdes" },
      "geometry": {
        "type": "Polygon",
        "coordinates": [[
          [-74.0770, 4.5800],
          [-74.0770, 4.5870],
          [-74.0700, 4.5870],
          [-74.0660, 4.5840],
          [-74.0660, 4.5770],
          [-74.0720, 4.5750],
          [-74.0770, 4.5800]
        ]]
      }
    },
    {
      "type": "Feature",
      "properties": { "nombre": "La Peña", "upz": "Lourdes" },
      "geometry": {
        "type": "Polygon",
        "coordinates": [[
          [-74.0700, 4.5870],
          [-74.0770, 4.5870],
          [-74.0770, 4.5930],
          [-74.0720, 4.5960],
          [-74.0660, 4.5940],
          [-74.0660, 4.5870],
          [-74.0700, 4.5870]
        ]]
      }
    },
    {
      "type": "Feature",
      "properties": { "nombre": "Veracruz", "upz": "Sagrado Corazón" },
      "geometry": {
        "type": "Polygon",
        "coordinates": [[
          [-74.0790, 4.5990],
          [-74.0830, 4.6010],
          [-74.0830, 4.6070],
          [-74.0780, 4.6090],
          [-74.0720, 4.6060],
          [-74.0720, 4.5990],
          [-74.0790, 4.5990]
        ]]
      }
    },
    {
      "type": "Feature",
      "properties": { "nombre": "San Diego", "upz": "Sagrado Corazón" },
      "geometry": {
        "type": "Polygon",
        "coordinates": [[
          [-74.0720, 4.5990],
          [-74.0720, 4.6060],
          [-74.0650, 4.6060],
          [-74.0620, 4.6020],
          [-74.0640, 4.5970],
          [-74.0690, 4.5960],
          [-74.0720, 4.5990]
        ]]
      }
    },
    {
      "type": "Feature",
      "properties": { "nombre": "La Macarena", "upz": "La Macarena" },
      "geometry": {
        "type": "Polygon",
        "coordinates": [[
          [-74.0780, 4.6090],
          [-74.0830, 4.6070],
          [-74.0830, 4.6150],
          [-74.0770, 4.6180],
          [-74.0700, 4.6150],
          [-74.0700, 4.6090],
          [-74.0720, 4.6060],
          [-74.0780, 4.6090]
        ]]
      }
    },
    {
      "type": "Feature",
      "properties": { "nombre": "Otro", "upz": "Sin clasificar" },
      "geometry": {
        "type": "Polygon",
        "coordinates": [[
          [-74.0720, 4.5960],
          [-74.0690, 4.5960],
          [-74.0650, 4.6060],
          [-74.0700, 4.6090],
          [-74.0700, 4.6150],
          [-74.0720, 4.6155],
          [-74.0720, 4.5990],
          [-74.0720, 4.5960]
        ]]
      }
    }
  ]
}
